*******************************************************************************
 Revised: April 12, 2021               Jupiter                              599
 
 PHYSICAL DATA:
  Mass x 10^22 (g)      = 189818722 +- 8817 Density (g/cm^3)  = 1.3262 +- .0003
  Equat. radius (1 bar) = 71492+-4 km       Polar radius (km)     = 66854+-10
  Vol. Mean Radius (km) = 69911+-6          Flattening            = 0.06487
  Geometric Albedo      = 0.52              Rocky core mass (Mc/M)= 0.0261
  Sid. rot. period (III)= 9h 55m 29.71 s    Sid. rot. rate (rad/s)= 0.00017585
  Mean solar day, hrs   = ~9.9259         
  GM (km^3/s^2)         = 126686531.900     GM 1-sigma (km^3/s^2) =  +- 1.2732
  Equ. grav, ge (m/s^2) = 24.79             Pol. grav, gp (m/s^2) =  28.34
  Vis. magnitude V(1,0) = -9.40
  Vis. mag. (opposition)= -2.70             Obliquity to orbit    =  3.13 deg
  Sidereal orbit period = 11.861982204 y    Sidereal orbit period = 4332.589 d
  Mean daily motion     = 0.0831294 deg/d   Mean orbit speed, km/s= 13.0697
  Atmos. temp. (1 bar)  = 165+-5 K          Escape speed, km/s    =  59.5           
  A_roche(ice)/Rp       =  2.76             Hill's sphere rad. Rp = 740
                                 Perihelion   Aphelion     Mean
  Solar Constant (W/m^2)         56           46           51
  Maximum Planetary IR (W/m^2)   13.7         13.4         13.6
  Minimum Planetary IR (W/m^2)   13.7         13.4         13.6
*******************************************************************************
 
 
*******************************************************************************
Ephemeris / WWW_USER Thu Aug 12 05:44:15 2021 Pasadena, USA      / Horizons    
*******************************************************************************
Target body name: Jupiter (599)                   {source: jup365_merged}
Center body name: Chandra Observatory (spacecraft) (-151) {source: CHANDRA_MERGED}
Center-site name: BODYCENTRIC
*******************************************************************************
Start time      : A.D. 2021-Jul-17 00:00:00.0000 UT      
Stop  time      : A.D. 2021-Jul-19 00:00:00.0000 UT      
Step-size       : 5 minutes
*******************************************************************************
Target pole/equ : IAU_JUPITER                     {West-longitude positive}
Target radii    : 71492.0 x 71492.0 x 66854.0 km  {Equator, meridian, pole}    
Center geodetic : 0.00000000,0.00000000,0.0000000 {E-lon(deg),Lat(deg),Alt(km)}
Center cylindric: 0.00000000,0.00000000,0.0000000 {E-lon(deg),Dxy(km),Dz(km)}
Center pole/equ : ICRF
Center radii    : (undefined)                                                  
Target primary  : Sun
Vis. interferer : None
Rel. light bend : Sun                             {source: CHANDRA_MERGED}
Rel. lght bnd GM: 1.3271E+11 km^3/s^2                                          
Atmos refraction: NO (AIRLESS)
RA format       : DEG
Time format     : CAL 
EOP file        : eop.210811.p211102                                           
EOP coverage    : DATA-BASED 1962-JAN-20 TO 2021-AUG-11. PREDICTS-> 2021-NOV-01
Units conversion: 1 au= 149597870.700 km, c= 299792.458 km/s, 1 day= 86400.0 s 
Table cut-offs 1: Elevation (-90.0deg=NO ),Airmass     n.a.    , Daylight (NO )
Table cut-offs 2: Solar elongation (  0.0,180.0=NO ),Local Hour Angle( 0.0=NO )
Table cut-offs 3: RA/DEC angular rate (     0.0=NO )                           
***********************************************************************************************************************************************
 Date__(UT)__HR:MN     R.A.___(ICRF)___DEC Ang-diam ObsSub-LON ObsSub-LAT SunSub-LON SunSub-LAT   NP.ang   NP.dist            delta      deldot
***********************************************************************************************************************************************
$$SOE
 2021-Jul-18 23:50     333.08379 -12.26831 47.36736 349.369488   0.927174 355.907241   0.425335 337.0236    22.144 4.16205667148086 -16.5552095
 2021-Jul-18 23:55     333.08359 -12.26848 47.36774 352.392600   0.927257 358.929794   0.425354 337.0236    22.144 4.16202348070929 -16.5467005
 2021-Jul-19 00:00     333.08338 -12.26865 47.36811 355.415714   0.927340   1.952348   0.425373 337.0237    22.145 4.16199030698756 -16.5382066
